{
  "type": "FeatureCollection",
  "features": [
    {
      "type": "Feature",
      "properties": {
        "norad_id": 32150,
        "name": "FENGYUN 1C DEB",
        "group": "fengyun-1c-debris",
        "lat": 41.431620219079754,
        "lon": 14.912333875042851,
        "alt_km": 568.5057942239582,
        "timestamp": "2025-12-24T22:42:22.317291+00:00",
        "meta_object_name": "FENGYUN 1C DEB",
        "meta_object_id": "1999-025CSU",
        "meta_epoch": "2025-12-17T19:32:44.216160",
        "meta_mean_motion": 14.60679601,
        "meta_eccentricity": 0.01717549,
        "meta_inclination": 99.1924,
        "meta_ra_of_asc_node": 15.2172,
        "meta_arg_of_pericenter": 52.3233,
        "meta_mean_anomaly": 309.3402,
        "meta_ephemeris_type": 0,
        "meta_classification_type": "U",
        "meta_norad_cat_id": 32150,
        "meta_element_set_no": 999,
        "meta_rev_at_epoch": 97780,
        "meta_bstar": 0.00013273529,
        "meta_mean_motion_dot": 7.28e-06,
        "meta_mean_motion_ddot": 0,
        "tle_line1": "1 32150U 99025CSU 25351.81440065  .00000728  00000+0  13274-3 0  9996",
        "tle_line2": "2 32150  99.1924  15.2172 0171754  52.3233 309.3402 14.60679601977800"
      },
      "geometry": {
        "type": "Point",
        "coordinates": [
          14.912333875042851,
          41.431620219079754
        ]
      }
    },
    {
      "type": "Feature",
      "properties": {
        "norad_id": 32152,
        "name": "FENGYUN 1C DEB",
        "group": "fengyun-1c-debris",
        "lat": 59.293732423140014,
        "lon": 145.66182837554837,
        "alt_km": 706.6771508228085,
        "timestamp": "2025-12-24T22:42:22.317301+00:00",
        "meta_object_name": "FENGYUN 1C DEB",
        "meta_object_id": "1999-025CSW",
        "meta_epoch": "2025-12-21T05:25:01.444224",
        "meta_mean_motion": 14.56838784,
        "meta_eccentricity": 0.00551981,
        "meta_inclination": 98.7603,
        "meta_ra_of_asc_node": 156.8014,
        "meta_arg_of_pericenter": 175.7831,
        "meta_mean_anomaly": 184.3842,
        "meta_ephemeris_type": 0,
        "meta_classification_type": "U",
        "meta_norad_cat_id": 32152,
        "meta_element_set_no": 999,
        "meta_rev_at_epoch": 62736,
        "meta_bstar": 0.0014652442,
        "meta_mean_motion_dot": 6.654e-05,
        "meta_mean_motion_ddot": 0,
        "tle_line1": "1 32152U 99025CSW 25355.22571116  .00006654  00000+0  14652-2 0  9993",
        "tle_line2": "2 32152  98.7603 156.8014 0055198 175.7831 184.3842 14.56838784627361"
      },
      "geometry": {
        "type": "Point",
        "coordinates": [
          145.66182837554837,
          59.293732423140014
        ]
      }
    },
    {
      "type": "Feature",
      "properties": {
        "norad_id": 32153,
        "name": "FENGYUN 1C DEB",
        "group": "fengyun-1c-debris",
        "lat": 34.63385436683855,
        "lon": -163.7615351995032,
        "alt_km": 853.3341324650255,
        "timestamp": "2025-12-24T22:42:22.317311+00:00",
        "meta_object_name": "FENGYUN 1C DEB",
        "meta_object_id": "1999-025CSX",
        "meta_epoch": "2025-12-23T20:00:59.939712",
        "meta_mean_motion": 14.48751602,
        "meta_eccentricity": 0.02076357,
        "meta_inclination": 98.7683,
        "meta_ra_of_asc_node": 201.203,
        "meta_arg_of_pericenter": 187.7034,
        "meta_mean_anomaly": 172.0954,
        "meta_ephemeris_type": 0,
        "meta_classification_type": "U",
        "meta_norad_cat_id": 32153,
        "meta_element_set_no": 999,
        "meta_rev_at_epoch": 97384,
        "meta_bstar": 0.00029710839,
        "meta_mean_motion_dot": 1.414e-05,
        "meta_mean_motion_ddot": 0,
        "tle_line1": "1 32153U 99025CSX 25357.83402708  .00001414  00000+0  29711-3 0  9995",
        "tle_line2": "2 32153  98.7683 201.2030 0207635 187.7034 172.0954 14.48751602973845"
      },
      "geometry": {
        "type": "Point",
        "coordinates": [
          -163.7615351995032,
          34.63385436683855
        ]
      }
    },
    {
      "type": "Feature",
      "properties": {
        "norad_id": 32155,
        "name": "FENGYUN 1C DEB",
        "group": "fengyun-1c-debris",
        "lat": 44.71146477102912,
        "lon": -80.01024173434323,
        "alt_km": 824.0131945690664,
        "timestamp": "2025-12-24T22:42:22.317321+00:00",
        "meta_object_name": "FENGYUN 1C DEB",
        "meta_object_id": "1999-025CSZ",
        "meta_epoch": "2025-12-22T15:11:27.193632",
        "meta_mean_motion": 14.32975023,
        "meta_eccentricity": 0.00693114,
        "meta_inclination": 98.9542,
        "meta_ra_of_asc_node": 286.5796,
        "meta_arg_of_pericenter": 210.5989,
        "meta_mean_anomaly": 149.1143,
        "meta_ephemeris_type": 0,
        "meta_classification_type": "U",
        "meta_norad_cat_id": 32155,
        "meta_element_set_no": 999,
        "meta_rev_at_epoch": 70364,
        "meta_bstar": 0.00042072892,
        "meta_mean_motion_dot": 1.135e-05,
        "meta_mean_motion_ddot": 0,
        "tle_line1": "1 32155U 99025CSZ 25356.63295363  .00001135  00000+0  42073-3 0  9997",
        "tle_line2": "2 32155  98.9542 286.5796 0069311 210.5989 149.1143 14.32975023703641"
      },
      "geometry": {
        "type": "Point",
        "coordinates": [
          -80.01024173434323,
          44.71146477102912
        ]
      }
    },
    {
      "type": "Feature",
      "properties": {
        "norad_id": 32156,
        "name": "FENGYUN 1C DEB",
        "group": "fengyun-1c-debris",
        "lat": 9.229577542921522,
        "lon": 167.93059920192212,
        "alt_km": 729.4905050458619,
        "timestamp": "2025-12-24T22:42:22.317331+00:00",
        "meta_object_name": "FENGYUN 1C DEB",
        "meta_object_id": "1999-025CTA",
        "meta_epoch": "2025-12-21T17:31:26.712192",
        "meta_mean_motion": 14.31964818,
        "meta_eccentricity": 0.00820417,
        "meta_inclination": 99.3545,
        "meta_ra_of_asc_node": 166.001,
        "meta_arg_of_pericenter": 31.7205,
        "meta_mean_anomaly": 328.8882,
        "meta_ephemeris_type": 0,
        "meta_classification_type": "U",
        "meta_norad_cat_id": 32156,
        "meta_element_set_no": 999,
        "meta_rev_at_epoch": 64949,
        "meta_bstar": 0.00022590764,
        "meta_mean_motion_dot": 5.78e-06,
        "meta_mean_motion_ddot": 0,
        "tle_line1": "1 32156U 99025CTA 25355.73017028  .00000578  00000+0  22591-3 0  9991",
        "tle_line2": "2 32156  99.3545 166.0010 0082041  31.7205 328.8882 14.31964818649497"
      },
      "geometry": {
        "type": "Point",
        "coordinates": [
          167.93059920192212,
          9.229577542921522
        ]
      }
    },
    {
      "type": "Feature",
      "properties": {
        "norad_id": 32160,
        "name": "FENGYUN 1C DEB",
        "group": "fengyun-1c-debris",
        "lat": 61.586643060210505,
        "lon": 139.716772369436,
        "alt_km": 770.2975226017325,
        "timestamp": "2025-12-24T22:42:22.317340+00:00",
        "meta_object_name": "FENGYUN 1C DEB",
        "meta_object_id": "1999-025CTE",
        "meta_epoch": "2025-12-24T05:42:44.692992",
        "meta_mean_motion": 14.37597741,
        "meta_eccentricity": 0.00816512,
        "meta_inclination": 98.8815,
        "meta_ra_of_asc_node": 155.7856,
        "meta_arg_of_pericenter": 324.8235,
        "meta_mean_anomaly": 34.7576,
        "meta_ephemeris_type": 0,
        "meta_classification_type": "U",
        "meta_norad_cat_id": 32160,
        "meta_element_set_no": 999,
        "meta_rev_at_epoch": 96052,
        "meta_bstar": 0.00043465594,
        "meta_mean_motion_dot": 1.306e-05,
        "meta_mean_motion_ddot": 0,
        "tle_line1": "1 32160U 99025CTE 25358.23801728  .00001306  00000+0  43466-3 0  9996",
        "tle_line2": "2 32160  98.8815 155.7856 0081651 324.8235  34.7576 14.37597741960520"
      },
      "geometry": {
        "type": "Point",
        "coordinates": [
          139.716772369436,
          61.586643060210505
        ]
      }
    },
    {
      "type": "Feature",
      "properties": {
        "norad_id": 32161,
        "name": "FENGYUN 1C DEB",
        "group": "fengyun-1c-debris",
        "lat": 80.68641068034603,
        "lon": -5.349097349544945,
        "alt_km": 967.3340249810781,
        "timestamp": "2025-12-24T22:42:22.317351+00:00",
        "meta_object_name": "FENGYUN 1C DEB",
        "meta_object_id": "1999-025CTF",
        "meta_epoch": "2025-12-20T13:45:55.412928",
        "meta_mean_motion": 14.01882373,
        "meta_eccentricity": 0.0135471,
        "meta_inclination": 98.8321,
        "meta_ra_of_asc_node": 98.9655,
        "meta_arg_of_pericenter": 258.2246,
        "meta_mean_anomaly": 100.3696,
        "meta_ephemeris_type": 0,
        "meta_classification_type": "U",
        "meta_norad_cat_id": 32161,
        "meta_element_set_no": 999,
        "meta_rev_at_epoch": 63539,
        "meta_bstar": 0.00038333,
        "meta_mean_motion_dot": 5.88e-06,
        "meta_mean_motion_ddot": 0,
        "tle_line1": "1 32161U 99025CTF 25354.57355802  .00000588  00000+0  38333-3 0  9995",
        "tle_line2": "2 32161  98.8321  98.9655 0135471 258.2246 100.3696 14.01882373635396"
      },
      "geometry": {
        "type": "Point",
        "coordinates": [
          -5.349097349544945,
          80.68641068034603
        ]
      }
    }
  ]
}